{
  "type": "FeatureCollection",
  "features": [
    {
      "type": "Feature",
      "properties": {
        "norad_id": 66531,
        "name": "STARLINK-35960",
        "group": "last-30-days",
        "lat": -6.706406368501937,
        "lon": -74.51066793613384,
        "alt_km": 357.42754751093344,
        "timestamp": "2025-12-05T05:43:13.896830+00:00",
        "meta_object_name": "STARLINK-35960",
        "meta_object_id": "2025-265R",
        "meta_epoch": "2025-12-04T18:00:02.000160",
        "meta_mean_motion": 15.727441,
        "meta_eccentricity": 0.0001581,
        "meta_inclination": 42.9999,
        "meta_ra_of_asc_node": 101.1888,
        "meta_arg_of_pericenter": 277.6115,
        "meta_mean_anomaly": 25.6788,
        "meta_ephemeris_type": 0,
        "meta_classification_type": "U",
        "meta_norad_cat_id": 66531,
        "meta_element_set_no": 999,
        "meta_rev_at_epoch": 371,
        "meta_bstar": -0.015015,
        "meta_mean_motion_dot": -0.01825462,
        "meta_mean_motion_ddot": 0,
        "tle_line1": "1 66531U 25265R   25338.75002315 -.01825462  00000+0 -15015-1 0  9997",
        "tle_line2": "2 66531  42.9999 101.1888 0001581 277.6115  25.6788 15.72744100  3714"
      },
      "geometry": {
        "type": "Point",
        "coordinates": [
          -74.51066793613384,
          -6.706406368501937
        ]
      }
    },
    {
      "type": "Feature",
      "properties": {
        "norad_id": 66532,
        "name": "STARLINK-35914",
        "group": "last-30-days",
        "lat": -8.00318975230489,
        "lon": -73.08672735304752,
        "alt_km": 357.47700027890824,
        "timestamp": "2025-12-05T05:43:13.896840+00:00",
        "meta_object_name": "STARLINK-35914",
        "meta_object_id": "2025-265S",
        "meta_epoch": "2025-12-04T18:00:02.000160",
        "meta_mean_motion": 15.72745066,
        "meta_eccentricity": 0.0001373,
        "meta_inclination": 42.9998,
        "meta_ra_of_asc_node": 101.184,
        "meta_arg_of_pericenter": 275.0973,
        "meta_mean_anomaly": 30.1127,
        "meta_ephemeris_type": 0,
        "meta_classification_type": "U",
        "meta_norad_cat_id": 66532,
        "meta_element_set_no": 999,
        "meta_rev_at_epoch": 371,
        "meta_bstar": -0.015039,
        "meta_mean_motion_dot": -0.01827856,
        "meta_mean_motion_ddot": 0,
        "tle_line1": "1 66532U 25265S   25338.75002315 -.01827856  00000+0 -15039-1 0  9993",
        "tle_line2": "2 66532  42.9998 101.1840 0001373 275.0973  30.1127 15.72745066  3715"
      },
      "geometry": {
        "type": "Point",
        "coordinates": [
          -73.08672735304752,
          -8.00318975230489
        ]
      }
    },
    {
      "type": "Feature",
      "properties": {
        "norad_id": 66533,
        "name": "STARLINK-35707",
        "group": "last-30-days",
        "lat": -9.29104701528403,
        "lon": -71.65789661793296,
        "alt_km": 357.7447773703525,
        "timestamp": "2025-12-05T05:43:13.896850+00:00",
        "meta_object_name": "STARLINK-35707",
        "meta_object_id": "2025-265T",
        "meta_epoch": "2025-12-04T18:00:02.000160",
        "meta_mean_motion": 15.72744305,
        "meta_eccentricity": 0.0001411,
        "meta_inclination": 42.9999,
        "meta_ra_of_asc_node": 101.1795,
        "meta_arg_of_pericenter": 281.798,
        "meta_mean_anomaly": 25.327,
        "meta_ephemeris_type": 0,
        "meta_classification_type": "U",
        "meta_norad_cat_id": 66533,
        "meta_element_set_no": 999,
        "meta_rev_at_epoch": 371,
        "meta_bstar": -0.015022,
        "meta_mean_motion_dot": -0.01826018,
        "meta_mean_motion_ddot": 0,
        "tle_line1": "1 66533U 25265T   25338.75002315 -.01826018  00000+0 -15022-1 0  9995",
        "tle_line2": "2 66533  42.9999 101.1795 0001411 281.7980  25.3270 15.72744305  3711"
      },
      "geometry": {
        "type": "Point",
        "coordinates": [
          -71.65789661793296,
          -9.29104701528403
        ]
      }
    },
    {
      "type": "Feature",
      "properties": {
        "norad_id": 66534,
        "name": "STARLINK-35976",
        "group": "last-30-days",
        "lat": -10.572815009188325,
        "lon": -70.21887020973476,
        "alt_km": 357.87570102924474,
        "timestamp": "2025-12-05T05:43:13.896860+00:00",
        "meta_object_name": "STARLINK-35976",
        "meta_object_id": "2025-265U",
        "meta_epoch": "2025-12-04T18:00:02.000160",
        "meta_mean_motion": 15.72744018,
        "meta_eccentricity": 0.0001602,
        "meta_inclination": 43.0002,
        "meta_ra_of_asc_node": 101.1751,
        "meta_arg_of_pericenter": 283.1593,
        "meta_mean_anomaly": 25.8821,
        "meta_ephemeris_type": 0,
        "meta_classification_type": "U",
        "meta_norad_cat_id": 66534,
        "meta_element_set_no": 999,
        "meta_rev_at_epoch": 371,
        "meta_bstar": -0.015011,
        "meta_mean_motion_dot": -0.01824974,
        "meta_mean_motion_ddot": 0,
        "tle_line1": "1 66534U 25265U   25338.75002315 -.01824974  00000+0 -15011-1 0  9993",
        "tle_line2": "2 66534  43.0002 101.1751 0001602 283.1593  25.8821 15.72744018  3717"
      },
      "geometry": {
        "type": "Point",
        "coordinates": [
          -70.21887020973476,
          -10.572815009188325
        ]
      }
    },
    {
      "type": "Feature",
      "properties": {
        "norad_id": 66535,
        "name": "STARLINK-35514",
        "group": "last-30-days",
        "lat": -11.849965772286293,
        "lon": -68.7661784633478,
        "alt_km": 357.9751344282158,
        "timestamp": "2025-12-05T05:43:13.896872+00:00",
        "meta_object_name": "STARLINK-35514",
        "meta_object_id": "2025-265V",
        "meta_epoch": "2025-12-04T18:00:02.000160",
        "meta_mean_motion": 15.72744341,
        "meta_eccentricity": 0.0001556,
        "meta_inclination": 43.0002,
        "meta_ra_of_asc_node": 101.1699,
        "meta_arg_of_pericenter": 283.5097,
        "meta_mean_anomaly": 27.4487,
        "meta_ephemeris_type": 0,
        "meta_classification_type": "U",
        "meta_norad_cat_id": 66535,
        "meta_element_set_no": 999,
        "meta_rev_at_epoch": 371,
        "meta_bstar": -0.015012,
        "meta_mean_motion_dot": -0.01825116,
        "meta_mean_motion_ddot": 0,
        "tle_line1": "1 66535U 25265V   25338.75002315 -.01825116  00000+0 -15012-1 0  9994",
        "tle_line2": "2 66535  43.0002 101.1699 0001556 283.5097  27.4487 15.72744341  3715"
      },
      "geometry": {
        "type": "Point",
        "coordinates": [
          -68.7661784633478,
          -11.849965772286293
        ]
      }
    },
    {
      "type": "Feature",
      "properties": {
        "norad_id": 66536,
        "name": "STARLINK-35640",
        "group": "last-30-days",
        "lat": -13.120609786746604,
        "lon": -67.29782934112035,
        "alt_km": 358.06117908748456,
        "timestamp": "2025-12-05T05:43:13.896882+00:00",
        "meta_object_name": "STARLINK-35640",
        "meta_object_id": "2025-265W",
        "meta_epoch": "2025-12-04T18:00:02.000160",
        "meta_mean_motion": 15.72743385,
        "meta_eccentricity": 0.0001277,
        "meta_inclination": 43.0002,
        "meta_ra_of_asc_node": 101.1655,
        "meta_arg_of_pericenter": 282.9067,
        "meta_mean_anomaly": 29.97,
        "meta_ephemeris_type": 0,
        "meta_classification_type": "U",
        "meta_norad_cat_id": 66536,
        "meta_element_set_no": 999,
        "meta_rev_at_epoch": 369,
        "meta_bstar": -0.015016,
        "meta_mean_motion_dot": -0.01825224,
        "meta_mean_motion_ddot": 0,
        "tle_line1": "1 66536U 25265W   25338.75002315 -.01825224  00000+0 -15016-1 0  9999",
        "tle_line2": "2 66536  43.0002 101.1655 0001277 282.9067  29.9700 15.72743385  3697"
      },
      "geometry": {
        "type": "Point",
        "coordinates": [
          -67.29782934112035,
          -13.120609786746604
        ]
      }
    },
    {
      "type": "Feature",
      "properties": {
        "norad_id": 66537,
        "name": "STARLINK-35582",
        "group": "last-30-days",
        "lat": -14.379647077320811,
        "lon": -65.8187029190955,
        "alt_km": 358.0844141414509,
        "timestamp": "2025-12-05T05:43:13.896894+00:00",
        "meta_object_name": "STARLINK-35582",
        "meta_object_id": "2025-265X",
        "meta_epoch": "2025-12-04T18:00:02.000160",
        "meta_mean_motion": 15.72752991,
        "meta_eccentricity": 0.0001519,
        "meta_inclination": 43.0004,
        "meta_ra_of_asc_node": 101.1605,
        "meta_arg_of_pericenter": 280.9947,
        "meta_mean_anomaly": 33.792,
        "meta_ephemeris_type": 0,
        "meta_classification_type": "U",
        "meta_norad_cat_id": 66537,
        "meta_element_set_no": 999,
        "meta_rev_at_epoch": 371,
        "meta_bstar": -0.015091,
        "meta_mean_motion_dot": -0.01834073,
        "meta_mean_motion_ddot": 0,
        "tle_line1": "1 66537U 25265X   25338.75002315 -.01834073  00000+0 -15091-1 0  9995",
        "tle_line2": "2 66537  43.0004 101.1605 0001519 280.9947  33.7920 15.72752991  3712"
      },
      "geometry": {
        "type": "Point",
        "coordinates": [
          -65.8187029190955,
          -14.379647077320811
        ]
      }
    }
  ]
}